{
  "type": "FeatureCollection",
  "features": [
    {
      "type": "Feature",
      "properties": {
        "name": "Selected crop analysis area",
        "role": "analysis",
        "derived_from": "USDA NASS Cropland Data Layer 2025; contiguous CDL class 1 pixels",
        "cdl_pixels": 2257
      },
      "geometry": {
        "type": "Polygon",
        "coordinates": [
          [
            [
              -88.89349245840509,
              40.15602806293088
            ],
            [
              -88.89351900166434,
              40.15576104425503
            ],
            [
              -88.89493617605089,
              40.15584105497883
            ],
            [
              -88.89496271385853,
              40.155574036025726
            ],
            [
              -88.90098571798542,
              40.155913902631404
            ],
            [
              -88.90101223326671,
              40.15564688239529
            ],
            [
              -88.90207511834006,
              40.15570682876503
            ],
            [
              -88.9021016294833,
              40.15543980832935
            ],
            [
              -88.90174733557461,
              40.1554198272787
            ],
            [
              -88.90195942811177,
              40.15328366557886
            ],
            [
              -88.9008965790936,
              40.15322371831147
            ],
            [
              -88.90100263637835,
              40.15215563916691
            ],
            [
              -88.90171119168602,
              40.15219560438838
            ],
            [
              -88.90197629479471,
              40.14952540724428
            ],
            [
              -88.90233055961221,
              40.14954538758897
            ],
            [
              -88.90206546963634,
              40.1522155855063
            ],
            [
              -88.90667110097377,
              40.152475249473596
            ],
            [
              -88.90669759378731,
              40.152208228531485
            ],
            [
              -88.90740615279137,
              40.15224816175115
            ],
            [
              -88.90737966260453,
              40.152515182847814
            ],
            [
              -88.90773394371618,
              40.15253514804208
            ],
            [
              -88.90776043258965,
              40.15226812686812
            ],
            [
              -88.90882327316949,
              40.152328016247715
            ],
            [
              -88.9088497579054,
              40.15206099487438
            ],
            [
              -88.91132971697573,
              40.15220070138613
            ],
            [
              -88.91135619232067,
              40.15193367950448
            ],
            [
              -88.91171047166416,
              40.151953633519426
            ],
            [
              -88.91173694549836,
              40.15168661159293
            ],
            [
              -88.91138266746823,
              40.15166665765521
            ],
            [
              -88.91156798797411,
              40.149797505615965
            ],
            [
              -88.91121371933458,
              40.14977755122355
            ],
            [
              -88.91126666890065,
              40.14924350822913
            ],
            [
              -88.91091240308505,
              40.149223552995956
            ],
            [
              -88.91093887888526,
              40.14895653162443
            ],
            [
              -88.9105846145803,
              40.14893657547327
            ],
            [
              -88.91063756821502,
              40.1484025329815
            ],
            [
              -88.91134609176937,
              40.148442443979725
            ],
            [
              -88.91150493217768,
              40.1468403163524
            ],
            [
              -88.9118591863717,
              40.14686026989546
            ],
            [
              -88.91180624298478,
              40.14739431246328
            ],
            [
              -88.91499456324831,
              40.14757385095806
            ],
            [
              -88.91502102322164,
              40.14730682896333
            ],
            [
              -88.91750082972614,
              40.14744641374486
            ],
            [
              -88.91752728030974,
              40.147179391242304
            ],
            [
              -88.91717302295919,
              40.147159453621896
            ],
            [
              -88.91743753108113,
              40.144489231141044
            ],
            [
              -88.9170832870594,
              40.14446929329689
            ],
            [
              -88.91710973810012,
              40.144202271303165
            ],
            [
              -88.9167554955887,
              40.14418233254102
            ],
            [
              -88.91672904323487,
              40.14444935445762
            ],
            [
              -88.91141540953717,
              40.14415015245284
            ],
            [
              -88.91165365088399,
              40.141746966779294
            ],
            [
              -88.9120078799321,
              40.14176691985075
            ],
            [
              -88.91203434889319,
              40.14149989930387
            ],
            [
              -88.91132589362026,
              40.141459992320236
            ],
            [
              -88.91135236500998,
              40.14119297195988
            ],
            [
              -88.90851856231635,
              40.1410333048398
            ],
            [
              -88.90849208042295,
              40.141300324582495
            ],
            [
              -88.90565827986032,
              40.141140593159854
            ],
            [
              -88.90563178726586,
              40.14140761231678
            ],
            [
              -88.90527756177121,
              40.14138764133386
            ],
            [
              -88.90530405567863,
              40.141120622254206
            ],
            [
              -88.90494983169444,
              40.14110065035351
            ],
            [
              -88.90492333647408,
              40.14136766935588
            ],
            [
              -88.9024437649251,
              40.14122783764806
            ],
            [
              -88.90241726031662,
              40.141494856141634
            ],
            [
              -88.90206303528696,
              40.14147487612579
            ],
            [
              -88.90195700962535,
              40.14254295011192
            ],
            [
              -88.90231123990685,
              40.14256293043694
            ],
            [
              -88.90228473431043,
              40.14282994909105
            ],
            [
              -88.90193050271594,
              40.142809968688745
            ],
            [
              -88.90190399560892,
              40.143076987297725
            ],
            [
              -88.9022582285164,
              40.143096967777296
            ],
            [
              -88.90220521633555,
              40.14363100524628
            ],
            [
              -88.90185098080205,
              40.14361102461208
            ],
            [
              -88.90179796520474,
              40.14414506205505
            ],
            [
              -88.90215220336428,
              40.14416504284385
            ],
            [
              -88.90209918960258,
              40.144699080570085
            ],
            [
              -88.90139070822893,
              40.144659117688164
            ],
            [
              -88.90136419842554,
              40.14492613644494
            ],
            [
              -88.90100995672209,
              40.14490615343399
            ],
            [
              -88.90077134777985,
              40.14730932299803
            ],
            [
              -88.90147985502027,
              40.147349289416496
            ],
            [
              -88.9014533445536,
              40.14761630857268
            ],
            [
              -88.90180759978344,
              40.14763629036649
            ],
            [
              -88.90178109043228,
              40.14790330963227
            ],
            [
              -88.90142683388929,
              40.14788332776113
            ],
            [
              -88.9014003230273,
              40.14815034698182
            ],
            [
              -88.90175458088349,
              40.14817032893029
            ],
            [
              -88.90172807113706,
              40.148437348260565
            ],
            [
              -88.90137381196769,
              40.1484173662348
            ],
            [
              -88.9013473007104,
              40.148684385520006
            ],
            [
              -88.898158965263,
              40.1485045018096
            ],
            [
              -88.89813244198932,
              40.148771520431026
            ],
            [
              -88.89317282252594,
              40.14849154002165
            ],
            [
              -88.89314628067,
              40.148758557591975
            ],
            [
              -88.8917292484075,
              40.14867852705397
            ],
            [
              -88.89170270110101,
              40.14894554434689
            ],
            [
              -88.891348442217,
              40.148925534147054
            ],
            [
              -88.89118914634241,
              40.150527638117616
            ],
            [
              -88.89048061340988,
              40.15048761380324
            ],
            [
              -88.8905071658436,
              40.15022059654898
            ],
            [
              -88.88909010760705,
              40.15014053628793
            ],
            [
              -88.88911666509561,
              40.14987351937576
            ],
            [
              -88.89053371807935,
              40.149953579327025
            ],
            [
              -88.89056027011715,
              40.14968656213735
            ],
            [
              -88.89091453254481,
              40.149706574559794
            ],
            [
              -88.89094108307147,
              40.14943955732496
            ],
            [
              -88.89058682195699,
              40.14941954497994
            ],
            [
              -88.89061337359887,
              40.1491525278548
            ],
            [
              -88.89096763340018,
              40.14917254012238
            ],
            [
              -88.89099418353092,
              40.14890552295208
            ],
            [
              -88.88638883862829,
              40.14864528685844
            ],
            [
              -88.88636227142652,
              40.14891230302176
            ],
            [
              -88.88565375717033,
              40.148872251617455
            ],
            [
              -88.88560061691994,
              40.14940628373091
            ],
            [
              -88.88701765672985,
              40.149486383178804
            ],
            [
              -88.88704422170144,
              40.149219366796004
            ],
            [
              -88.88775274016842,
              40.14925941039406
            ],
            [
              -88.88772617782317,
              40.149526426931814
            ],
            [
              -88.88843469970864,
              40.14956646670418
            ],
            [
              -88.88835501936377,
              40.150367516975884
            ],
            [
              -88.88729222501392,
              40.15030745512737
            ],
            [
              -88.8873187892665,
              40.15004043857025
            ],
            [
              -88.88590173815889,
              40.1499603424831
            ],
            [
              -88.88592830746616,
              40.14969332626822
            ],
            [
              -88.8852197857272,
              40.14965327240867
            ],
            [
              -88.88519321379361,
              40.14992028846854
            ],
            [
              -88.88483895190812,
              40.14990025996852
            ],
            [
              -88.88481237846322,
              40.15016727598317
            ],
            [
              -88.88410385266026,
              40.15012721584265
            ],
            [
              -88.88407727639087,
              40.150394231734566
            ],
            [
              -88.88336874875408,
              40.15035416745833
            ],
            [
              -88.88328901087785,
              40.1511552148627
            ],
            [
              -88.88399754639384,
              40.15119527960404
            ],
            [
              -88.88397096933188,
              40.15146229562513
            ],
            [
              -88.8868051298269,
              40.151622515403346
            ],
            [
              -88.88677856307272,
              40.15188953207679
            ],
            [
              -88.88713283533929,
              40.1519095551482
            ],
            [
              -88.8871062697003,
              40.15217657193143
            ],
            [
              -88.8874605434782,
              40.15219659408516
            ],
            [
              -88.8874339789544,
              40.1524636109782
            ],
            [
              -88.8888510812996,
              40.15254368995098
            ],
            [
              -88.88887764057027,
              40.15227667274804
            ],
            [
              -88.88958619030447,
              40.15231670610826
            ],
            [
              -88.88955963366037,
              40.152583723466144
            ],
            [
              -88.89026818681315,
              40.152623753000476
            ],
            [
              -88.89029474083065,
              40.15235673548768
            ],
            [
              -88.89100329214878,
              40.15239676088628
            ],
            [
              -88.89097674075786,
              40.152663778553965
            ],
            [
              -88.89133101802717,
              40.152683789837916
            ],
            [
              -88.8913575681048,
              40.15241677209276
            ],
            [
              -88.8924203971605,
              40.152476799741
            ],
            [
              -88.89218147479559,
              40.15487996270329
            ],
            [
              -88.89253576336347,
              40.15489997062584
            ],
            [
              -88.89245612295248,
              40.15570102576198
            ],
            [
              -88.89316470856247,
              40.15574103908594
            ],
            [
              -88.89313816398979,
              40.15600805768436
            ],
            [
              -88.89349245840509,
              40.15602806293088
            ]
          ],
          [
            [
              -88.88898387567275,
              40.15120860425947
            ],
            [
              -88.88862960635572,
              40.151188586396444
            ],
            [
              -88.88865616594953,
              40.150921569432576
            ],
            [
              -88.88901043395333,
              40.15094158721815
            ],
            [
              -88.88898387567275,
              40.15120860425947
            ]
          ],
          [
            [
              -88.88514006933208,
              40.150454320685135
            ],
            [
              -88.88478580482021,
              40.15043429203013
            ],
            [
              -88.88481237846322,
              40.15016727598317
            ],
            [
              -88.8851666416619,
              40.15018730456071
            ],
            [
              -88.88514006933208,
              40.150454320685135
            ]
          ],
          [
            [
              -88.90649241140709,
              40.14709490250859
            ],
            [
              -88.90613815754826,
              40.14707493388366
            ],
            [
              -88.90616465035116,
              40.14680791381938
            ],
            [
              -88.90651890289685,
              40.14682788236705
            ],
            [
              -88.90649241140709,
              40.14709490250859
            ]
          ],
          [
            [
              -88.90733336205962,
              40.14579973561504
            ],
            [
              -88.9069791143715,
              40.145779769366705
            ],
            [
              -88.90700560356065,
              40.145512749309034
            ],
            [
              -88.90735984993566,
              40.14553271548013
            ],
            [
              -88.90733336205962,
              40.14579973561504
            ]
          ],
          [
            [
              -88.90700560356065,
              40.145512749309034
            ],
            [
              -88.90665135738311,
              40.14549278214281
            ],
            [
              -88.90667784768787,
              40.1452257621946
            ],
            [
              -88.90703209255231,
              40.14524572928357
            ],
            [
              -88.90700560356065,
              40.145512749309034
            ]
          ]
        ]
      }
    },
    {
      "type": "Feature",
      "properties": {
        "name": "Comparison crop area 1",
        "role": "comparison",
        "derived_from": "USDA NASS Cropland Data Layer 2025; contiguous CDL class 1 pixels",
        "cdl_pixels": 1069
      },
      "geometry": {
        "type": "Polygon",
        "coordinates": [
          [
            [
              -88.90214268561307,
              40.18014571430378
            ],
            [
              -88.9021692055533,
              40.179878690348524
            ],
            [
              -88.90677661669878,
              40.18013835434876
            ],
            [
              -88.90680311935456,
              40.1798713294206
            ],
            [
              -88.9096384553816,
              40.18003103840011
            ],
            [
              -88.9097179306182,
              40.1792299619576
            ],
            [
              -88.91042675871493,
              40.179269878782286
            ],
            [
              -88.91040026979572,
              40.17953690438474
            ],
            [
              -88.91110910131145,
              40.17957681738152
            ],
            [
              -88.9115593413838,
              40.175037383996916
            ],
            [
              -88.91085055455389,
              40.1749974736283
            ],
            [
              -88.91087704011466,
              40.17473044858618
            ],
            [
              -88.91052264831019,
              40.174710491985834
            ],
            [
              -88.91049616143523,
              40.17497751695066
            ],
            [
              -88.90872419880536,
              40.17487771862904
            ],
            [
              -88.90869770516186,
              40.175144743240224
            ],
            [
              -88.90692574090093,
              40.17504491964305
            ],
            [
              -88.90687273987903,
              40.17557896819086
            ],
            [
              -88.90651834499137,
              40.17555900033009
            ],
            [
              -88.90646534055043,
              40.1760930488549
            ],
            [
              -88.90681973806655,
              40.176113016870374
            ],
            [
              -88.90676673546342,
              40.17664706568159
            ],
            [
              -88.90641233531883,
              40.17662709751143
            ],
            [
              -88.90638583240653,
              40.176894121889106
            ],
            [
              -88.90674023386538,
              40.1769140901366
            ],
            [
              -88.90666072788524,
              40.17771516369938
            ],
            [
              -88.9045342984407,
              40.17759533788817
            ],
            [
              -88.90450778816627,
              40.177862362010885
            ],
            [
              -88.90202695361113,
              40.177722519390166
            ],
            [
              -88.90205347308546,
              40.17745549580915
            ],
            [
              -88.90169907025438,
              40.177435514386964
            ],
            [
              -88.90172559084515,
              40.17716849091631
            ],
            [
              -88.90207999236198,
              40.17718847226112
            ],
            [
              -88.9021065114407,
              40.176921448746015
            ],
            [
              -88.90175211123812,
              40.176901467478594
            ],
            [
              -88.90177863143329,
              40.176634444073834
            ],
            [
              -88.90213303032165,
              40.176654425263855
            ],
            [
              -88.90218606749016,
              40.17612037839833
            ],
            [
              -88.90183167123025,
              40.17610039736311
            ],
            [
              -88.90207034052602,
              40.17369718879372
            ],
            [
              -88.90171595629137,
              40.17367720745946
            ],
            [
              -88.9020606896312,
              40.17020591189705
            ],
            [
              -88.90135195592063,
              40.17016594825401
            ],
            [
              -88.90132543653002,
              40.17043297063797
            ],
            [
              -88.90061670098255,
              40.17039300285826
            ],
            [
              -88.90059017876617,
              40.1706600251202
            ],
            [
              -88.89740086676875,
              40.170480120138706
            ],
            [
              -88.89737433252857,
              40.17074714173676
            ],
            [
              -88.89347629184607,
              40.17052714751631
            ],
            [
              -88.89344974295418,
              40.17079416829519
            ],
            [
              -88.89274100823022,
              40.17075415624992
            ],
            [
              -88.89218338056871,
              40.176361596934356
            ],
            [
              -88.89253777542729,
              40.17638160508199
            ],
            [
              -88.8924050006342,
              40.17771671253146
            ],
            [
              -88.89275940226185,
              40.17773672007101
            ],
            [
              -88.89273284802329,
              40.17800374173723
            ],
            [
              -88.89308725116322,
              40.17802374835869
            ],
            [
              -88.89311380408755,
              40.17775672661499
            ],
            [
              -88.89630342942965,
              40.177936740709924
            ],
            [
              -88.8963299703278,
              40.17766971830186
            ],
            [
              -88.90129162321762,
              40.17794957885453
            ],
            [
              -88.90131814551826,
              40.17768255539538
            ],
            [
              -88.9016725494658,
              40.17770253789056
            ],
            [
              -88.9016460284794,
              40.17796956142711
            ],
            [
              -88.90200043393901,
              40.17798954300412
            ],
            [
              -88.90178826944114,
              40.18012573310316
            ],
            [
              -88.90214268561307,
              40.18014571430378
            ]
          ]
        ]
      }
    },
    {
      "type": "Feature",
      "properties": {
        "name": "Comparison crop area 2",
        "role": "comparison",
        "derived_from": "USDA NASS Cropland Data Layer 2025; contiguous CDL class 1 pixels",
        "cdl_pixels": 809
      },
      "geometry": {
        "type": "Polygon",
        "coordinates": [
          [
            [
              -88.873275854896,
              40.180126118047255
            ],
            [
              -88.8733024824831,
              40.17985910017635
            ],
            [
              -88.87826419696921,
              40.180139866884424
            ],
            [
              -88.87829080595839,
              40.179872847958855
            ],
            [
              -88.87899962286113,
              40.179912941404
            ],
            [
              -88.87902622902335,
              40.17964592235607
            ],
            [
              -88.87938063645817,
              40.17966596750761
            ],
            [
              -88.8794072411077,
              40.17939894841502
            ],
            [
              -88.8797616474267,
              40.17941899249335
            ],
            [
              -88.87970844055766,
              40.17995303086682
            ],
            [
              -88.88289813001312,
              40.1801333841681
            ],
            [
              -88.88292472171848,
              40.179866364266225
            ],
            [
              -88.88505118239549,
              40.17998655453329
            ],
            [
              -88.8855030769954,
              40.175447213327985
            ],
            [
              -88.88514868872815,
              40.175427185424674
            ],
            [
              -88.88512210696479,
              40.17569420515467
            ],
            [
              -88.88476771758167,
              40.17567417617824
            ],
            [
              -88.88508670142677,
              40.17246994251781
            ],
            [
              -88.88473232801067,
              40.172449913476754
            ],
            [
              -88.88470574579992,
              40.172716932690285
            ],
            [
              -88.8836426227991,
              40.17265683936147
            ],
            [
              -88.88361603644806,
              40.1729238583751
            ],
            [
              -88.88290728614422,
              40.1728837910233
            ],
            [
              -88.88288069696686,
              40.173150809914574
            ],
            [
              -88.88217194482817,
              40.17311073842562
            ],
            [
              -88.88214535282448,
              40.173377757194494
            ],
            [
              -88.88143659885102,
              40.173337681568405
            ],
            [
              -88.88141000402095,
              40.1736047002149
            ],
            [
              -88.88034687060633,
              40.17354457907674
            ],
            [
              -88.88032027163581,
              40.173811597523226
            ],
            [
              -88.87996589291362,
              40.173791555075226
            ],
            [
              -88.8799392924307,
              40.17405857347691
            ],
            [
              -88.87958491259288,
              40.17403852995579
            ],
            [
              -88.87961151438985,
              40.17377151163174
            ],
            [
              -88.87925713606445,
              40.17375146719276
            ],
            [
              -88.87923053295346,
              40.174018485439184
            ],
            [
              -88.87887615351244,
              40.17399843992706
            ],
            [
              -88.87884954888898,
              40.174265458128716
            ],
            [
              -88.87814078797413,
              40.17422536396272
            ],
            [
              -88.87811418052418,
              40.174492382041876
            ],
            [
              -88.877405417775,
              40.17445228373861
            ],
            [
              -88.87737880749849,
              40.17471930169532
            ],
            [
              -88.87667004291505,
              40.17467919925472
            ],
            [
              -88.87664342981196,
              40.17494621708897
            ],
            [
              -88.87593466339436,
              40.17490611051102
            ],
            [
              -88.87590804746466,
              40.1751731282228
            ],
            [
              -88.87519927921294,
              40.17513301750749
            ],
            [
              -88.8751726604566,
              40.17540003509676
            ],
            [
              -88.8741095056258,
              40.17533986132442
            ],
            [
              -88.87408288272871,
              40.17560687871348
            ],
            [
              -88.87372849686815,
              40.17558681872065
            ],
            [
              -88.87359537283386,
              40.176921905770605
            ],
            [
              -88.87324098060138,
              40.17690184439375
            ],
            [
              -88.87318772696938,
              40.177435879288545
            ],
            [
              -88.87354212183013,
              40.17745594082079
            ],
            [
              -88.87348887003202,
              40.17798997600263
            ],
            [
              -88.87136248807701,
              40.177869590943445
            ],
            [
              -88.87133585399516,
              40.17813660811742
            ],
            [
              -88.86991826474136,
              40.178056331189566
            ],
            [
              -88.86989162520422,
              40.17832334808549
            ],
            [
              -88.86882843140762,
              40.17826312970317
            ],
            [
              -88.86880178772931,
              40.17853014639878
            ],
            [
              -88.86844738888037,
              40.17851007153582
            ],
            [
              -88.86839409829928,
              40.179044104870265
            ],
            [
              -88.86874849977656,
              40.17906417988875
            ],
            [
              -88.86866856635697,
              40.17986523037076
            ],
            [
              -88.873275854896,
              40.180126118047255
            ]
          ],
          [
            [
              -88.88047046065995,
              40.17945907766328
            ],
            [
              -88.88011605394412,
              40.17943903557612
            ],
            [
              -88.88014265576676,
              40.17917201636117
            ],
            [
              -88.88049706116836,
              40.17919205837071
            ],
            [
              -88.88047046065995,
              40.17945907766328
            ]
          ],
          [
            [
              -88.88085146676836,
              40.17921209938468
            ],
            [
              -88.88049706116836,
              40.17919205837071
            ],
            [
              -88.88052366147836,
              40.178925039111114
            ],
            [
              -88.88087806576414,
              40.17894508004745
            ],
            [
              -88.88085146676836,
              40.17921209938468
            ]
          ],
          [
            [
              -88.88123247024828,
              40.17896511998821
            ],
            [
              -88.88087806576414,
              40.17894508004745
            ],
            [
              -88.88090466456151,
              40.178678060743174
            ],
            [
              -88.88125906773145,
              40.17869810060631
            ],
            [
              -88.88123247024828,
              40.17896511998821
            ]
          ],
          [
            [
              -88.8819944693228,
              40.17847115784168
            ],
            [
              -88.88128566501625,
              40.17843108125735
            ],
            [
              -88.88131226210265,
              40.178164061941324
            ],
            [
              -88.88166666284256,
              40.17818410065365
            ],
            [
              -88.8816932584164,
              40.177917081292954
            ],
            [
              -88.88204765804046,
              40.17793711893209
            ],
            [
              -88.8819944693228,
              40.17847115784168
            ]
          ],
          [
            [
              -88.88242865061,
              40.17769013609271
            ],
            [
              -88.88207425210177,
              40.177670099526715
            ],
            [
              -88.88210084596473,
              40.177403080154264
            ],
            [
              -88.88245524315877,
              40.17742311664263
            ],
            [
              -88.88242865061,
              40.17769013609271
            ]
          ],
          [
            [
              -88.88316403814186,
              40.17746318663271
            ],
            [
              -88.88280964055114,
              40.17744315213544
            ],
            [
              -88.88283623158742,
              40.17717613264069
            ],
            [
              -88.88319062786395,
              40.17719616706034
            ],
            [
              -88.88316403814186,
              40.17746318663271
            ]
          ],
          [
            [
              -88.88389942101196,
              40.17723623291302
            ],
            [
              -88.8835450243388,
              40.17721620048445
            ],
            [
              -88.88357161254841,
              40.17694918086742
            ],
            [
              -88.8839260079074,
              40.176969213218385
            ],
            [
              -88.88389942101196,
              40.17723623291302
            ]
          ],
          [
            [
              -88.88430698884768,
              40.17672222483449
            ],
            [
              -88.88395259460455,
              40.17670219355668
            ],
            [
              -88.8839791811034,
              40.17643517392785
            ],
            [
              -88.88433357403238,
              40.176455205128114
            ],
            [
              -88.88430698884768,
              40.17672222483449
            ]
          ],
          [
            [
              -88.88468796715964,
              40.176475235332795
            ],
            [
              -88.88433357403238,
              40.176455205128114
            ],
            [
              -88.88441332839683,
              40.17565414620629
            ],
            [
              -88.88476771758167,
              40.17567417617824
            ],
            [
              -88.88468796715964,
              40.176475235332795
            ]
          ]
        ]
      }
    }
  ],
  "provenance": {
    "provider": "USDA NASS",
    "product": "Cropland Data Layer",
    "year": 2025,
    "source_url": "https://nassgeodata.gmu.edu/nass_data_cache/byfips/CDL_2025_17.zip",
    "note": "Analysis areas derived from classified corn pixels; not cadastral parcels."
  }
}