{
  "type": "FeatureCollection",
  "features": [
    {
      "type": "Feature",
      "properties": {
        "name": "North 40",
        "role": "insured",
        "source": "Fictional carrier field registry",
        "note": "Demo insured-field boundary; not a real policyholder boundary."
      },
      "geometry": {
        "type": "Polygon",
        "coordinates": [
          [
            [
              -88.9045,
              40.148
            ],
            [
              -88.898,
              40.1484
            ],
            [
              -88.8976,
              40.1524
            ],
            [
              -88.904,
              40.152
            ],
            [
              -88.9045,
              40.148
            ]
          ]
        ]
      }
    },
    {
      "type": "Feature",
      "properties": {
        "name": "Comparison area 1",
        "role": "comparison",
        "derived_from": "USDA NASS Cropland Data Layer 2025; contiguous CDL class 1 pixels",
        "cdl_pixels": 1069
      },
      "geometry": {
        "type": "Polygon",
        "coordinates": [
          [
            [
              -88.90214268561307,
              40.18014571430378
            ],
            [
              -88.9021692055533,
              40.179878690348524
            ],
            [
              -88.90677661669878,
              40.18013835434876
            ],
            [
              -88.90680311935456,
              40.1798713294206
            ],
            [
              -88.9096384553816,
              40.18003103840011
            ],
            [
              -88.9097179306182,
              40.1792299619576
            ],
            [
              -88.91042675871493,
              40.179269878782286
            ],
            [
              -88.91040026979572,
              40.17953690438474
            ],
            [
              -88.91110910131145,
              40.17957681738152
            ],
            [
              -88.9115593413838,
              40.175037383996916
            ],
            [
              -88.91085055455389,
              40.1749974736283
            ],
            [
              -88.91087704011466,
              40.17473044858618
            ],
            [
              -88.91052264831019,
              40.174710491985834
            ],
            [
              -88.91049616143523,
              40.17497751695066
            ],
            [
              -88.90872419880536,
              40.17487771862904
            ],
            [
              -88.90869770516186,
              40.175144743240224
            ],
            [
              -88.90692574090093,
              40.17504491964305
            ],
            [
              -88.90687273987903,
              40.17557896819086
            ],
            [
              -88.90651834499137,
              40.17555900033009
            ],
            [
              -88.90646534055043,
              40.1760930488549
            ],
            [
              -88.90681973806655,
              40.176113016870374
            ],
            [
              -88.90676673546342,
              40.17664706568159
            ],
            [
              -88.90641233531883,
              40.17662709751143
            ],
            [
              -88.90638583240653,
              40.176894121889106
            ],
            [
              -88.90674023386538,
              40.1769140901366
            ],
            [
              -88.90666072788524,
              40.17771516369938
            ],
            [
              -88.9045342984407,
              40.17759533788817
            ],
            [
              -88.90450778816627,
              40.177862362010885
            ],
            [
              -88.90202695361113,
              40.177722519390166
            ],
            [
              -88.90205347308546,
              40.17745549580915
            ],
            [
              -88.90169907025438,
              40.177435514386964
            ],
            [
              -88.90172559084515,
              40.17716849091631
            ],
            [
              -88.90207999236198,
              40.17718847226112
            ],
            [
              -88.9021065114407,
              40.176921448746015
            ],
            [
              -88.90175211123812,
              40.176901467478594
            ],
            [
              -88.90177863143329,
              40.176634444073834
            ],
            [
              -88.90213303032165,
              40.176654425263855
            ],
            [
              -88.90218606749016,
              40.17612037839833
            ],
            [
              -88.90183167123025,
              40.17610039736311
            ],
            [
              -88.90207034052602,
              40.17369718879372
            ],
            [
              -88.90171595629137,
              40.17367720745946
            ],
            [
              -88.9020606896312,
              40.17020591189705
            ],
            [
              -88.90135195592063,
              40.17016594825401
            ],
            [
              -88.90132543653002,
              40.17043297063797
            ],
            [
              -88.90061670098255,
              40.17039300285826
            ],
            [
              -88.90059017876617,
              40.1706600251202
            ],
            [
              -88.89740086676875,
              40.170480120138706
            ],
            [
              -88.89737433252857,
              40.17074714173676
            ],
            [
              -88.89347629184607,
              40.17052714751631
            ],
            [
              -88.89344974295418,
              40.17079416829519
            ],
            [
              -88.89274100823022,
              40.17075415624992
            ],
            [
              -88.89218338056871,
              40.176361596934356
            ],
            [
              -88.89253777542729,
              40.17638160508199
            ],
            [
              -88.8924050006342,
              40.17771671253146
            ],
            [
              -88.89275940226185,
              40.17773672007101
            ],
            [
              -88.89273284802329,
              40.17800374173723
            ],
            [
              -88.89308725116322,
              40.17802374835869
            ],
            [
              -88.89311380408755,
              40.17775672661499
            ],
            [
              -88.89630342942965,
              40.177936740709924
            ],
            [
              -88.8963299703278,
              40.17766971830186
            ],
            [
              -88.90129162321762,
              40.17794957885453
            ],
            [
              -88.90131814551826,
              40.17768255539538
            ],
            [
              -88.9016725494658,
              40.17770253789056
            ],
            [
              -88.9016460284794,
              40.17796956142711
            ],
            [
              -88.90200043393901,
              40.17798954300412
            ],
            [
              -88.90178826944114,
              40.18012573310316
            ],
            [
              -88.90214268561307,
              40.18014571430378
            ]
          ]
        ]
      }
    },
    {
      "type": "Feature",
      "properties": {
        "name": "Comparison area 2",
        "role": "comparison",
        "derived_from": "USDA NASS Cropland Data Layer 2025; contiguous CDL class 1 pixels",
        "cdl_pixels": 809
      },
      "geometry": {
        "type": "Polygon",
        "coordinates": [
          [
            [
              -88.873275854896,
              40.180126118047255
            ],
            [
              -88.8733024824831,
              40.17985910017635
            ],
            [
              -88.87826419696921,
              40.180139866884424
            ],
            [
              -88.87829080595839,
              40.179872847958855
            ],
            [
              -88.87899962286113,
              40.179912941404
            ],
            [
              -88.87902622902335,
              40.17964592235607
            ],
            [
              -88.87938063645817,
              40.17966596750761
            ],
            [
              -88.8794072411077,
              40.17939894841502
            ],
            [
              -88.8797616474267,
              40.17941899249335
            ],
            [
              -88.87970844055766,
              40.17995303086682
            ],
            [
              -88.88289813001312,
              40.1801333841681
            ],
            [
              -88.88292472171848,
              40.179866364266225
            ],
            [
              -88.88505118239549,
              40.17998655453329
            ],
            [
              -88.8855030769954,
              40.175447213327985
            ],
            [
              -88.88514868872815,
              40.175427185424674
            ],
            [
              -88.88512210696479,
              40.17569420515467
            ],
            [
              -88.88476771758167,
              40.17567417617824
            ],
            [
              -88.88508670142677,
              40.17246994251781
            ],
            [
              -88.88473232801067,
              40.172449913476754
            ],
            [
              -88.88470574579992,
              40.172716932690285
            ],
            [
              -88.8836426227991,
              40.17265683936147
            ],
            [
              -88.88361603644806,
              40.1729238583751
            ],
            [
              -88.88290728614422,
              40.1728837910233
            ],
            [
              -88.88288069696686,
              40.173150809914574
            ],
            [
              -88.88217194482817,
              40.17311073842562
            ],
            [
              -88.88214535282448,
              40.173377757194494
            ],
            [
              -88.88143659885102,
              40.173337681568405
            ],
            [
              -88.88141000402095,
              40.1736047002149
            ],
            [
              -88.88034687060633,
              40.17354457907674
            ],
            [
              -88.88032027163581,
              40.173811597523226
            ],
            [
              -88.87996589291362,
              40.173791555075226
            ],
            [
              -88.8799392924307,
              40.17405857347691
            ],
            [
              -88.87958491259288,
              40.17403852995579
            ],
            [
              -88.87961151438985,
              40.17377151163174
            ],
            [
              -88.87925713606445,
              40.17375146719276
            ],
            [
              -88.87923053295346,
              40.174018485439184
            ],
            [
              -88.87887615351244,
              40.17399843992706
            ],
            [
              -88.87884954888898,
              40.174265458128716
            ],
            [
              -88.87814078797413,
              40.17422536396272
            ],
            [
              -88.87811418052418,
              40.174492382041876
            ],
            [
              -88.877405417775,
              40.17445228373861
            ],
            [
              -88.87737880749849,
              40.17471930169532
            ],
            [
              -88.87667004291505,
              40.17467919925472
            ],
            [
              -88.87664342981196,
              40.17494621708897
            ],
            [
              -88.87593466339436,
              40.17490611051102
            ],
            [
              -88.87590804746466,
              40.1751731282228
            ],
            [
              -88.87519927921294,
              40.17513301750749
            ],
            [
              -88.8751726604566,
              40.17540003509676
            ],
            [
              -88.8741095056258,
              40.17533986132442
            ],
            [
              -88.87408288272871,
              40.17560687871348
            ],
            [
              -88.87372849686815,
              40.17558681872065
            ],
            [
              -88.87359537283386,
              40.176921905770605
            ],
            [
              -88.87324098060138,
              40.17690184439375
            ],
            [
              -88.87318772696938,
              40.177435879288545
            ],
            [
              -88.87354212183013,
              40.17745594082079
            ],
            [
              -88.87348887003202,
              40.17798997600263
            ],
            [
              -88.87136248807701,
              40.177869590943445
            ],
            [
              -88.87133585399516,
              40.17813660811742
            ],
            [
              -88.86991826474136,
              40.178056331189566
            ],
            [
              -88.86989162520422,
              40.17832334808549
            ],
            [
              -88.86882843140762,
              40.17826312970317
            ],
            [
              -88.86880178772931,
              40.17853014639878
            ],
            [
              -88.86844738888037,
              40.17851007153582
            ],
            [
              -88.86839409829928,
              40.179044104870265
            ],
            [
              -88.86874849977656,
              40.17906417988875
            ],
            [
              -88.86866856635697,
              40.17986523037076
            ],
            [
              -88.873275854896,
              40.180126118047255
            ]
          ],
          [
            [
              -88.88047046065995,
              40.17945907766328
            ],
            [
              -88.88011605394412,
              40.17943903557612
            ],
            [
              -88.88014265576676,
              40.17917201636117
            ],
            [
              -88.88049706116836,
              40.17919205837071
            ],
            [
              -88.88047046065995,
              40.17945907766328
            ]
          ],
          [
            [
              -88.88085146676836,
              40.17921209938468
            ],
            [
              -88.88049706116836,
              40.17919205837071
            ],
            [
              -88.88052366147836,
              40.178925039111114
            ],
            [
              -88.88087806576414,
              40.17894508004745
            ],
            [
              -88.88085146676836,
              40.17921209938468
            ]
          ],
          [
            [
              -88.88123247024828,
              40.17896511998821
            ],
            [
              -88.88087806576414,
              40.17894508004745
            ],
            [
              -88.88090466456151,
              40.178678060743174
            ],
            [
              -88.88125906773145,
              40.17869810060631
            ],
            [
              -88.88123247024828,
              40.17896511998821
            ]
          ],
          [
            [
              -88.8819944693228,
              40.17847115784168
            ],
            [
              -88.88128566501625,
              40.17843108125735
            ],
            [
              -88.88131226210265,
              40.178164061941324
            ],
            [
              -88.88166666284256,
              40.17818410065365
            ],
            [
              -88.8816932584164,
              40.177917081292954
            ],
            [
              -88.88204765804046,
              40.17793711893209
            ],
            [
              -88.8819944693228,
              40.17847115784168
            ]
          ],
          [
            [
              -88.88242865061,
              40.17769013609271
            ],
            [
              -88.88207425210177,
              40.177670099526715
            ],
            [
              -88.88210084596473,
              40.177403080154264
            ],
            [
              -88.88245524315877,
              40.17742311664263
            ],
            [
              -88.88242865061,
              40.17769013609271
            ]
          ],
          [
            [
              -88.88316403814186,
              40.17746318663271
            ],
            [
              -88.88280964055114,
              40.17744315213544
            ],
            [
              -88.88283623158742,
              40.17717613264069
            ],
            [
              -88.88319062786395,
              40.17719616706034
            ],
            [
              -88.88316403814186,
              40.17746318663271
            ]
          ],
          [
            [
              -88.88389942101196,
              40.17723623291302
            ],
            [
              -88.8835450243388,
              40.17721620048445
            ],
            [
              -88.88357161254841,
              40.17694918086742
            ],
            [
              -88.8839260079074,
              40.176969213218385
            ],
            [
              -88.88389942101196,
              40.17723623291302
            ]
          ],
          [
            [
              -88.88430698884768,
              40.17672222483449
            ],
            [
              -88.88395259460455,
              40.17670219355668
            ],
            [
              -88.8839791811034,
              40.17643517392785
            ],
            [
              -88.88433357403238,
              40.176455205128114
            ],
            [
              -88.88430698884768,
              40.17672222483449
            ]
          ],
          [
            [
              -88.88468796715964,
              40.176475235332795
            ],
            [
              -88.88433357403238,
              40.176455205128114
            ],
            [
              -88.88441332839683,
              40.17565414620629
            ],
            [
              -88.88476771758167,
              40.17567417617824
            ],
            [
              -88.88468796715964,
              40.176475235332795
            ]
          ]
        ]
      }
    }
  ],
  "provenance": {
    "insured_geometry": "Fictional carrier registry",
    "comparison_geometry": "USDA NASS Cropland Data Layer 2025",
    "note": "The insured boundary is fictional; public evidence measurements are real."
  }
}